,epoch_mjd,a,e,i,om,w,ma,spkid,per_y,sigma_e,sigma_a,sigma_i,sigma_om,sigma_w,sigma_per,full_name,number_mp,designation
18856,59800,1.799,0.302,2.47,128.94,274.46,197.51,3831461,2.41,4.2e-05,0.00013,0.00015,0.0038,0.0079,0.098,       (2018 TR2),       (2018 TR2),
18857,59800,2.467,0.5924,1.8,61.78,357.97,346.85,3831460,3.87,0.00057,0.0034,0.0011,0.0067,0.0048,2.9,       (2018 TS2),       (2018 TS2),
18858,59800,1.271,0.3274,8.64,180.05,300.99,176.39,3831462,1.43,2e-06,2.5e-06,4.2e-05,4.4e-05,5.9e-05,0.0016,       (2018 TT2),       (2018 TT2),
18859,58394,2.143,0.4307,5.94,293.89,20.04,14.38,3831466,3.14,0.003,0.013,0.011,0.1,0.16,11.0,       (2018 TU2),       (2018 TU2),
18860,59800,1.642,0.6316,10.15,341.51,163.89,237.62,3831469,2.1,2.8e-07,9.1e-08,2.9e-05,9e-05,8.6e-05,6.4e-05,       (2018 TV2),       (2018 TV2),
18861,59800,1.414,0.2179,10.21,194.88,169.16,107.26,3831470,1.68,0.00052,0.0012,0.018,0.0025,0.01,0.77,       (2018 TW2),       (2018 TW2),
18862,58397,1.747,0.5916,30.35,191.95,97.84,22.88,3831473,2.31,0.0021,0.0085,0.077,0.0004,0.071,6.1,       (2018 TX2),       (2018 TX2),
18863,59800,2.288,0.842,4.61,272.9,249.18,1.86,3831471,3.46,2.3e-06,2e-05,9.5e-06,0.0002,0.0002,0.016,       (2018 TY2),       (2018 TY2),
18864,59800,2.165,0.6489,1.98,16.05,76.94,57.39,3831472,3.18,1.8e-05,9.4e-05,6.1e-05,9e-05,0.00057,0.075,       (2018 TZ2),       (2018 TZ2),
18865,59800,2.578,0.6265,17.04,1.85,76.02,318.33,3831478,4.14,1.1e-05,7.3e-05,0.00026,6.8e-05,6.1e-05,0.064,       (2018 TA3),       (2018 TA3),
18866,59800,0.8293,0.4312,7.43,11.12,216.64,136.7,3831475,0.755,0.00081,5.1e-05,0.02,0.0016,0.001,0.026,       (2018 TB3),       (2018 TB3),
18867,59800,2.65,0.5997,9.29,64.43,12.88,303.87,3831474,4.31,6.5e-06,4.4e-05,6.1e-05,7.4e-05,3.5e-05,0.039,       (2018 TC3),       (2018 TC3),
18868,59800,1.245,0.4565,2.94,15.77,263.06,317.14,3831476,1.39,0.00037,0.00047,0.0026,0.0011,0.0058,0.29,       (2018 TD3),       (2018 TD3),
18869,59800,2.037,0.4622,10.61,17.01,11.02,110.48,3831477,2.91,9.5e-05,0.00039,0.0016,6.6e-05,0.00058,0.31,       (2018 TE3),       (2018 TE3),
18870,59800,2.133,0.717,6.87,51.56,76.63,59.0,3831479,3.11,1.3e-07,4.4e-08,1.1e-05,2.9e-05,4.2e-05,3.5e-05,       (2018 TF3),       (2018 TF3),
18871,58398,2.364,0.5789,7.57,193.81,152.39,5.93,3831609,3.63,0.00099,0.0055,0.0089,0.00069,0.0046,4.7,       (2018 TG3),       (2018 TG3),
18872,59800,1.221,0.2141,3.26,192.42,135.45,334.29,3831610,1.35,0.0002,0.00026,0.0025,6.9e-05,0.0041,0.16,       (2018 TH3),       (2018 TH3),
18873,59800,0.9513,0.3487,10.28,11.7,138.46,304.77,3831612,0.928,0.0017,0.00013,0.071,0.003,0.019,0.069,       (2018 TJ3),       (2018 TJ3),
18874,59800,1.488,0.1665,25.92,185.99,161.62,57.95,3831611,1.81,0.00011,0.00027,0.0069,0.00023,0.0043,0.18,       (2018 TK3),       (2018 TK3),
18875,58398,1.207,0.1629,35.45,12.78,67.64,307.99,3831613,1.33,0.00098,0.0023,0.1,0.0047,0.38,1.4,       (2018 TL3),       (2018 TL3),
18876,59800,1.36,0.2681,2.92,13.68,21.0,139.0,3831614,1.59,0.00011,0.00022,0.0011,0.00031,0.0024,0.14,       (2018 TM3),       (2018 TM3),
18877,59800,1.859,0.4697,2.47,188.91,211.88,176.32,3831615,2.53,0.00035,0.0012,0.0015,0.00017,0.0011,0.92,       (2018 TN3),       (2018 TN3),
18878,59800,1.131,0.1502,20.61,13.2,300.81,113.92,3831616,1.2,0.00028,0.00038,0.022,0.00029,0.043,0.22,       (2018 TO3),       (2018 TO3),
18879,58398,1.694,0.3903,30.65,12.86,357.86,1.11,3831619,2.2,0.0018,0.0051,0.059,3.9e-05,0.0037,3.6,       (2018 TP3),       (2018 TP3),
18880,59800,1.815,0.4511,5.33,18.44,23.89,195.18,3831617,2.45,0.00065,0.0022,0.0057,0.0011,0.0055,1.6,       (2018 TQ3),       (2018 TQ3),
18881,59800,1.131,0.1096,6.1,189.89,154.53,92.03,3831618,1.2,9.2e-05,0.00012,0.0041,0.00043,0.0054,0.068,       (2018 TR3),       (2018 TR3),
18882,59800,2.631,0.5283,26.88,9.16,245.59,18.56,3831715,4.27,4e-07,7.7e-07,8.6e-05,3.2e-05,0.00014,0.00069,       (2018 TB4),       (2018 TB4),
18883,58397,1.449,0.3628,22.27,192.09,120.4,29.2,3831716,1.74,0.005,0.011,0.2,0.0055,0.17,7.3,       (2018 TC4),       (2018 TC4),
18884,59800,1.417,0.3729,4.59,129.66,358.21,28.31,3831717,1.69,3.8e-08,5.8e-09,2.7e-06,9.8e-05,9.4e-05,3.8e-06,       (2018 TD4),       (2018 TD4),
18885,58401,2.345,0.6227,7.69,241.19,59.25,17.72,3831718,3.59,0.0039,0.023,0.052,0.13,0.12,19.0,       (2018 TE4),       (2018 TE4),
18886,58399,2.452,0.6949,1.17,283.43,18.14,12.12,3831719,3.84,0.011,0.079,0.015,0.49,0.47,67.0,       (2018 TJ4),       (2018 TJ4),
18887,59800,1.081,0.1598,19.69,17.34,77.13,86.02,3831726,1.12,3.1e-05,3.9e-05,0.003,3.8e-05,0.0061,0.022,       (2018 TR4),       (2018 TR4),
18888,59800,1.104,0.1072,1.8,12.78,43.6,76.82,3831725,1.16,7.9e-06,9.4e-06,0.00012,0.00032,0.00072,0.0054,       (2018 TS4),       (2018 TS4),
18889,58404,1.265,0.3173,21.43,194.41,113.31,39.68,3831727,1.42,0.0012,0.0019,0.053,0.0016,0.059,1.2,       (2018 TT4),       (2018 TT4),
18890,59800,0.9705,0.2129,19.38,199.5,298.56,262.44,3831728,0.956,0.00022,0.00014,0.03,0.0013,0.031,0.074,       (2018 TU4),       (2018 TU4),
18891,59800,1.448,0.4947,9.09,0.06,120.8,26.45,3831731,1.74,0.00014,0.0003,0.0032,0.0028,0.0028,0.2,       (2018 TV4),       (2018 TV4),
18892,59800,2.165,0.4706,7.25,313.55,336.68,113.07,3831732,3.19,6.4e-08,1.9e-08,1.6e-05,0.00028,0.00027,1.5e-05,       (2018 TW4),       (2018 TW4),
18893,59800,1.889,0.7095,11.57,351.4,178.97,107.43,3831730,2.6,1.3e-07,1.3e-07,9.2e-06,3.6e-05,4.7e-05,9.9e-05,       (2018 TX4),       (2018 TX4),
18894,59800,2.41,0.6102,2.71,12.49,329.1,15.55,3831729,3.74,0.00054,0.0032,0.0017,0.00058,0.0035,2.7,       (2018 TY4),       (2018 TY4),
18895,59800,2.38,0.6559,10.94,201.77,115.71,26.87,3831734,3.67,0.00074,0.0047,0.01,0.0027,0.003,4.0,       (2018 TZ4),       (2018 TZ4),
18896,58402,2.621,0.8038,3.9,59.66,57.69,347.91,3831733,4.24,0.0041,0.047,0.014,0.073,0.056,42.0,       (2018 TA5),       (2018 TA5),
18897,59800,1.126,0.5306,5.42,196.17,294.53,22.95,3831738,1.19,0.00046,0.0005,0.0064,0.00025,0.0019,0.29,       (2018 TB5),       (2018 TB5),
18898,59800,1.041,0.039,14.57,19.32,78.77,141.67,3831739,1.06,6.4e-05,0.00018,0.025,0.00075,0.17,0.1,       (2018 TC5),       (2018 TC5),
18899,58406,1.641,0.5356,14.57,197.6,101.68,27.44,3831736,2.1,0.00096,0.0029,0.022,0.00096,0.0073,2.0,       (2018 TD5),       (2018 TD5),
18900,59800,1.605,0.3471,9.36,23.84,14.58,308.68,3831737,2.03,0.00044,0.0012,0.0096,0.0027,0.007,0.82,       (2018 TE5),       (2018 TE5),
18901,59800,0.9044,0.3681,7.59,196.51,47.48,260.94,3831735,0.86,0.00067,1.7e-05,0.018,0.0052,0.0062,0.009,       (2018 TF5),       (2018 TF5),
18902,59800,2.103,0.4782,5.13,46.93,266.85,119.78,3831740,3.05,5.1e-08,2.3e-08,5.7e-06,4.5e-05,5.4e-05,1.8e-05,       (2018 TG5),       (2018 TG5),
18903,59800,2.201,0.4545,10.37,339.16,313.24,99.43,3831842,3.27,0.00025,0.00084,0.0035,0.0072,0.014,0.68,       (2018 TN5),       (2018 TN5),
18904,59800,2.337,0.5122,8.66,4.9,345.8,30.94,3831839,3.57,0.00072,0.0038,0.0069,0.0065,0.0039,3.1,       (2018 TO5),       (2018 TO5),
18905,59800,1.683,0.4723,2.74,11.3,309.0,292.15,3831841,2.18,2.1e-05,6e-05,9.4e-05,5.7e-05,0.00018,0.043,       (2018 TP5),       (2018 TP5),
18906,58403,2.173,0.5711,53.92,205.39,238.92,345.34,3831843,3.2,0.0049,0.027,0.14,0.025,0.26,22.0,       (2018 TQ5),       (2018 TQ5),
18907,58403,2.48,0.5513,19.18,22.41,19.21,354.57,3831840,3.91,0.0027,0.016,0.056,0.0035,0.016,14.0,       (2018 TR5),       (2018 TR5),
18908,59800,1.605,0.2004,7.61,29.44,7.13,310.31,3831844,2.03,9.2e-08,1.4e-08,3.9e-06,1.6e-05,4e-05,9.5e-06,       (2018 TS5),       (2018 TS5),
18909,58399,1.629,0.4734,5.3,188.46,256.62,332.74,3831845,2.08,0.0015,0.0041,0.017,0.0029,0.0046,2.9,       (2018 TT5),       (2018 TT5),
18910,59800,1.465,0.5273,5.44,192.68,263.8,30.77,3831851,1.77,0.00014,0.00036,0.0011,6.6e-05,0.0028,0.24,       (2018 TV5),       (2018 TV5),
18911,59800,2.234,0.4422,6.85,100.35,343.19,18.79,3831852,3.34,9.4e-07,1.3e-06,1.7e-05,0.00026,0.00026,0.0011,       (2018 TW5),       (2018 TW5),
18912,59800,2.175,0.4468,1.78,111.99,200.75,101.49,3831853,3.21,4.1e-08,1.3e-08,9.1e-06,0.00058,0.00058,1e-05,       (2018 TX5),       (2018 TX5),
18913,58408,0.9295,0.5111,18.94,26.07,132.99,284.87,3831854,0.896,0.00093,0.00069,0.058,0.01,0.028,0.36,       (2018 TY5),       (2018 TY5),
18914,59800,1.987,0.5508,1.17,132.97,197.1,144.22,3831856,2.8,0.00041,0.0017,0.00062,0.014,0.012,1.3,       (2018 TZ5),       (2018 TZ5),
18915,59800,2.348,0.4505,3.48,328.48,345.24,54.78,3831858,3.6,3.2e-05,9.7e-05,5.9e-05,0.0015,0.0014,0.082,       (2018 TC6),       (2018 TC6),
18916,58404,1.18,0.2415,5.37,182.04,107.94,59.16,3831859,1.28,0.0018,0.0021,0.033,0.014,0.044,1.3,       (2018 TD6),       (2018 TD6),
18917,59800,1.127,0.0258,19.08,16.91,277.38,149.11,3831865,1.2,8e-06,2.4e-07,0.00054,3.5e-05,0.0061,0.00014,       (2018 TE6),       (2018 TE6),
18918,58407,2.097,0.4982,3.35,32.1,354.65,358.57,3831864,3.04,0.001,0.0046,0.0053,0.0011,0.0054,3.6,       (2018 TF6),       (2018 TF6),
18919,59800,1.064,0.0836,0.71,21.43,70.46,109.38,3831863,1.1,1.5e-07,1.7e-07,1.8e-06,0.00013,0.00012,9.3e-05,       (2018 TG6),       (2018 TG6),
18920,58407,1.357,0.2868,10.5,196.04,121.51,38.32,3831862,1.58,0.0023,0.004,0.064,0.0082,0.0086,2.5,       (2018 TH6),       (2018 TH6),
18921,59800,1.139,0.2315,14.84,23.07,249.8,132.83,3831866,1.22,3.1e-05,2.9e-05,0.0018,8.5e-05,0.0018,0.017,       (2018 TJ6),       (2018 TJ6),
18922,58407,1.17,0.3803,4.38,206.74,69.58,61.92,3831867,1.27,0.006,0.006,0.066,0.01,0.058,3.5,       (2018 TK6),       (2018 TK6),
18923,59800,1.953,0.5765,9.71,65.61,244.46,166.96,3831870,2.73,6.9e-05,0.00026,0.0016,0.0013,0.00035,0.2,       (2018 TM6),       (2018 TM6),
18924,59800,1.648,0.2982,11.65,221.52,124.06,313.05,3831872,2.11,6.7e-07,5.8e-07,5.1e-05,4.3e-05,0.0001,0.00041,       (2018 TN6),       (2018 TN6),
